#aV2019  9  5  0  0  0.00000000     288 DD+AD WGS84 FIT  NGA
## 2069 345600.00000000   300.00000000 58731 0.0000000000000
+   31     1  2  3  5  6  7  8  9 10 11 12 13 14 15 16 17 18
+         19 20 21 22 23 24 25 26 27 28 29 30 31 32  0  0  0
+          0  0  0  0  0  0  0  0  0  0  0  0  0  0  0  0  0
+          0  0  0  0  0  0  0  0  0  0  0  0  0  0  0  0  0
+          0  0  0  0  0  0  0  0  0  0  0  0  0  0  0  0  0
++         2  2  2  2  2  2  2  2  2  2  2  2  2  2  2  2  2
++         2  2  2  2  2  2  2  2  2  2  2  2  2  2  0  0  0
++         0  0  0  0  0  0  0  0  0  0  0  0  0  0  0  0  0
++         0  0  0  0  0  0  0  0  0  0  0  0  0  0  0  0  0
++         0  0  0  0  0  0  0  0  0  0  0  0  0  0  0  0  0
%c cc cc ccc ccc cccc cccc cccc cccc ccccc ccccc ccccc ccccc
%c cc cc ccc ccc cccc cccc cccc cccc ccccc ccccc ccccc ccccc
%f  0.0000000  0.000000000  0.00000000000  0.000000000000000
%f  0.0000000  0.000000000  0.00000000000  0.000000000000000
%i    0    0    0    0      0      0      0      0         0
%i    0    0    0    0      0      0      0      0         0
/*      NGA, ST. LOUIS,MO.                                  
/*   EPHEMERIS COMPUTED FROM 2 DAYS OF DATA                 
/*   EPOCHA v5 SMOOTHER                                     
/*   G1762 IERS2010 SATAF SATAPC                            
*  2019  9  5  4 50  0.00000000
P  1 -17806.807556 -13836.385294 -14484.169184   -118.579112                    
V  1  17800.952708   2309.927601 -24122.295029     -0.121831                    
P  2  -3577.977085  15239.930443  22067.369568   -298.231198                    
V  2 -26301.021904  -3929.922631  -1729.359373     -0.082350                    
P  3 -13364.926909 -21255.240507   8748.924753     -7.815620                    
V  3  -1158.109733 -11358.496312 -29095.861953     -0.036966                    
P  5   1191.021889  24417.090284   9998.296955     -1.153379                    
V  5  -7187.333306 -11203.182426  28040.975770     -0.002950                    
P  6 -19219.239739   7594.265194  16740.834635    -47.202647                    
V  6 -20398.283938  -5724.158187 -20843.354682     -0.122555                    
P  7 -26026.283344  -6468.561322    915.983652    -99.752072                    
V  7   1361.715812  -2360.030807  31273.043594     -0.079254                    
P  8  -1662.558109 -18149.335352 -19211.929412     -5.319738                    
V  8  17062.795728 -17642.664996  15365.716757     -0.014389                    
P  9 -18014.842957   -355.954967  19471.136952    -23.424686                    
V  9  15265.616290 -19646.653907  13726.265331     -0.093429                    
P 10  13911.264052  -6017.941638 -21740.833907    -41.173276                    
V 10   8957.292738  26269.969355  -1742.816660     -0.149471                    
P 11 -13994.463217 -12100.618296 -19493.170479   -515.981747                    
V 11  22782.727036  -7562.473419 -12285.586042      0.106116                    
P 12   9814.527612  24147.101935   5317.488104    207.162491                    
V 12   -206.823146   7257.858436 -31158.715232     -0.037745                    
P 13  -9056.478921  20703.507826 -14017.998544    -46.039730                    
V 13 -14592.327433  10077.354672  24568.037383      0.020243                    
P 14  18283.998122 -19079.738090   1668.165144    -62.984560                    
V 14   3301.644088    942.126831 -31780.517854      0.019747                    
P 15   4839.812983  17792.736333 -19265.266101   -289.223497                    
V 15 -15707.759842  18388.367956  13623.568091      0.027113                    
P 16   1950.442867 -23790.774611  10978.856895    -71.247912                    
V 16   5447.534959  13461.518863  28146.740643     -0.034314                    
P 17 -20922.946662  14616.021832  -6772.604301    119.696047                    
V 17   4962.814939  -7973.817782 -30760.346767      0.070244                    
P 18  -9386.205926 -15658.815430 -19833.845764     83.302569                    
V 18  23970.980830   2589.889498 -13637.655879      0.028734                    
P 19 -20152.622175  17303.222047  -1252.492552   -271.525663                    
V 19   -514.945080  -2368.720512 -32150.606348      0.051320                    
P 20  17811.844318   3759.766770 -19498.371460    526.748458                    
V 20   9229.469480  22838.280738  12729.159532      0.001345                    
P 21  26171.504939   1961.997793  -2558.621350   -124.256527                    
V 21   3693.854589   3962.053242  31405.378937      0.065152                    
P 22 -11189.526755 -24113.507242   1449.964381   -751.570495                    
V 22   2848.305897  -2899.598311 -30887.608541     -0.040002                    
P 23 -10513.354066 -11840.409609  21645.282202   -168.561266                    
V 23  17753.761308 -20042.599583  -2768.655678      0.020149                    
P 24  15880.780705  14368.247187 -16083.348191     -1.723636                    
V 24 -20147.381658   -957.923703 -20617.669101     -0.005508                    
P 25  16063.527132  13683.901234  16070.528655    -10.825369                    
V 25   4845.600033  20172.277743 -21487.716616     -0.016907                    
P 26   7688.574525 -17457.425498  18388.407546     31.613862                    
V 26   9601.772212  21502.480920  16565.653948      0.088707                    
P 27  10044.340444 -22049.241447 -10633.698541    -45.606934                    
V 27  10532.192557  -8579.345695  28327.329314     -0.119620                    
P 28 -13532.896142   5563.647207 -21569.732006    763.062310                    
V 28  -6646.658188 -28012.283685  -2874.768343     -0.010349                    
P 29  15977.787720   3682.249612  20864.961670    106.319749                    
V 29 -18452.046137  19031.445632  10730.384951     -0.102297                    
P 30 -24643.825049   1369.244476 -10036.428480    -34.123012                    
V 30 -11665.537302  -5953.586375  27543.530454     -0.079230                    
P 31  18177.425747  -8405.559585  17658.942272     12.539722                    
V 31  21335.248937   6552.685584 -18393.439561     -0.025756                    
P 32  20384.351438 -15127.215052  -7532.217929     45.383799                    
V 32  -4244.313507   9169.035609 -29773.184260      0.139262                    
EOF
